*******************************************************************************
 Revised: July 31, 2013             Moon / (Earth)                          301
 
 GEOPHYSICAL DATA (updated 2018-Aug-15):
  Vol. mean radius, km  = 1737.53+-0.03    Mass, x10^22 kg       =    7.349
  Radius (gravity), km  = 1738.0           Surface emissivity    =    0.92
  Radius (IAU), km      = 1737.4           GM, km^3/s^2          = 4902.800066
  Density, g/cm^3       =    3.3437        GM 1-sigma, km^3/s^2  =  +-0.0001  
  V(1,0)                =   +0.21          Surface accel., m/s^2 =    1.62
  Earth/Moon mass ratio = 81.3005690769    Farside crust. thick. = ~80 - 90 km
  Mean crustal density  = 2.97+-.07 g/cm^3 Nearside crust. thick.= 58+-8 km 
  Heat flow, Apollo 15  = 3.1+-.6 mW/m^2   Mean angular diameter = 31'05.2"
  Heat flow, Apollo 17  = 2.2+-.5 mW/m^2   Sid. rot. rate, rad/s = 0.0000026617
  Geometric Albedo      = 0.12             Mean solar day        = 29.5306 d
  Obliquity to orbit    = 6.67 deg         Orbit period          = 27.321582 d
  Semi-major axis, a    = 384400 km        Eccentricity          = 0.05490
  Mean motion, rad/s    = 2.6616995x10^-6  Inclination           = 5.145 deg
  Apsidal period        = 3231.50 d        Nodal period          = 6798.38 d
                                 Perihelion  Aphelion    Mean
  Solar Constant (W/m^2)         1414+-7     1323+-7     1368+-7
  Maximum Planetary IR (W/m^2)   1314        1226        1268
  Minimum Planetary IR (W/m^2)      5.2         5.2         5.2
********************************************************************************


*******************************************************************************
Ephemeris / WWW_USER Thu Sep  7 08:03:29 2023 Pasadena, USA      / Horizons
*******************************************************************************
Target body name: Moon (301)                      {source: DE441}
Center body name: Earth (399)                     {source: DE441}
Center-site name: BODY CENTER
*******************************************************************************
Start time      : A.D. 2023-Jul-14 09:30:00.0000 TDB
Stop  time      : A.D. 2023-Aug-25 00:00:00.0000 TDB
Step-size       : 10 minutes
*******************************************************************************
Center geodetic : 0.0, 0.0, 0.0                   {E-lon(deg),Lat(deg),Alt(km)}
Center cylindric: 0.0, 0.0, 0.0                   {E-lon(deg),Dxy(km),Dz(km)}
Center radii    : 6378.137, 6378.137, 6356.752 km {Equator_a, b, pole_c}
Output units    : KM-S
Calendar mode   : Mixed Julian/Gregorian
Output type     : GEOMETRIC cartesian states
Output format   : 2 (position and velocity)
EOP file        : eop.230905.p231129
EOP coverage    : DATA-BASED 1962-JAN-20 TO 2023-SEP-05. PREDICTS-> 2023-NOV-28
Reference frame : ICRF
*******************************************************************************
            JDTDB,            Calendar Date (TDB),                      X,                      Y,                      Z,                     VX,                     VY,                     VZ,
**************************************************************************************************************************************************************************************************
$$SOE
2460162.562500000, A.D. 2023-Aug-06 01:30:00.0000,  3.599443884299041E+05,  7.913254894049521E+04,  2.529880694782535E+04, -1.730798552539468E-01,  9.225694231351802E-01,  4.966919916518215E-01,
2460162.569444444, A.D. 2023-Aug-06 01:40:00.0000,  3.598400221521740E+05,  7.968597324222364E+04,  2.559678427727337E+04, -1.748075684485296E-01,  9.221778276768704E-01,  4.965655415059549E-01,
2460162.576388889, A.D. 2023-Aug-06 01:50:00.0000,  3.597346195507290E+05,  8.023916182805080E+04,  2.589468531975641E+04, -1.765342668277460E-01,  9.217837039355595E-01,  4.964377019797878E-01,
2460162.583333333, A.D. 2023-Aug-06 02:00:00.0000,  3.596281812359142E+05,  8.079211318185592E+04,  2.619250924202691E+04, -1.782599455398416E-01,  9.213870547424454E-01,  4.963084743427426E-01,
2460162.590277778, A.D. 2023-Aug-06 02:10:00.0000,  3.595207078209830E+05,  8.134482578921887E+04,  2.649025521160017E+04, -1.799845997433702E-01,  9.209878829352036E-01,  4.961778598681714E-01,
2460162.597222222, A.D. 2023-Aug-06 02:20:00.0000,  3.594121999220902E+05,  8.189729813742412E+04,  2.678792239675664E+04, -1.817082246071981E-01,  9.205861913579546E-01,  4.960458598333379E-01,
2460162.604166667, A.D. 2023-Aug-06 02:30:00.0000,  3.593026581582865E+05,  8.244952871546449E+04,  2.708550996654433E+04, -1.834308153105107E-01,  9.201819828612307E-01,  4.959124755194006E-01,
2460162.611111111, A.D. 2023-Aug-06 02:40:00.0000,  3.591920831515118E+05,  8.300151601404503E+04,  2.738301709078108E+04, -1.851523670428175E-01,  9.197752603019427E-01,  4.957777082113956E-01,
2460162.618055556, A.D. 2023-Aug-06 02:50:00.0000,  3.590804755265894E+05,  8.355325852558691E+04,  2.768044294005694E+04, -1.868728750039574E-01,  9.193660265433471E-01,  4.956415591982192E-01,
2460162.625000000, A.D. 2023-Aug-06 03:00:00.0000,  3.589678359112194E+05,  8.410475474423106E+04,  2.797778668573643E+04, -1.885923344041043E-01,  9.189542844550131E-01,  4.955040297726104E-01,
2460162.631944444, A.D. 2023-Aug-06 03:10:00.0000,  3.588541649359727E+05,  8.465600316584211E+04,  2.827504749996088E+04, -1.903107404637714E-01,  9.185400369127893E-01,  4.953651212311341E-01,
2460162.638888889, A.D. 2023-Aug-06 03:20:00.0000,  3.587394632342848E+05,  8.520700228801201E+04,  2.857222455565067E+04, -1.920280884138169E-01,  9.181232867987712E-01,  4.952248348741641E-01,
2460162.645833333, A.D. 2023-Aug-06 03:30:00.0000,  3.586237314424498E+05,  8.575775061006389E+04,  2.886931702650758E+04, -1.937443734954482E-01,  9.177040370012686E-01,  4.950831720058649E-01,
2460162.652777778, A.D. 2023-Aug-06 03:40:00.0000,  3.585069701996138E+05,  8.630824663305569E+04,  2.916632408701701E+04, -1.954595909602268E-01,  9.172822904147713E-01,  4.949401339341757E-01,
2460162.659722222, A.D. 2023-Aug-06 03:50:00.0000,  3.583891801477686E+05,  8.685848885978390E+04,  2.946324491245023E+04, -1.971737360700725E-01,  9.168580499399185E-01,  4.947957219707927E-01,
2460162.666666667, A.D. 2023-Aug-06 04:00:00.0000,  3.582703619317462E+05,  8.740847579478724E+04,  2.976007867886668E+04, -1.988868040972683E-01,  9.164313184834647E-01,  4.946499374311519E-01,
2460162.673611111, A.D. 2023-Aug-06 04:10:00.0000,  3.581505161992119E+05,  8.795820594435028E+04,  3.005682456311617E+04, -2.005987903244641E-01,  9.160020989582472E-01,  4.945027816344125E-01,
2460162.680555556, A.D. 2023-Aug-06 04:20:00.0000,  3.580296436006584E+05,  8.850767781650712E+04,  3.035348174284110E+04, -2.023096900446810E-01,  9.155703942831536E-01,  4.943542559034390E-01,
2460162.687500000, A.D. 2023-Aug-06 04:30:00.0000,  3.579077447893991E+05,  8.905688992104502E+04,  3.065004939647873E+04, -2.040194985613152E-01,  9.151362073830894E-01,  4.942043615647851E-01,
2460162.694444444, A.D. 2023-Aug-06 04:40:00.0000,  3.577848204215628E+05,  8.960584076950797E+04,  3.094652670326333E+04, -2.057282111881421E-01,  9.146995411889449E-01,  4.940530999486759E-01,
2460162.701388889, A.D. 2023-Aug-06 04:50:00.0000,  3.576608711560866E+05,  9.015452887520027E+04,  3.124291284322841E+04, -2.074358232493195E-01,  9.142603986375640E-01,  4.939004723889910E-01,
2460162.708333333, A.D. 2023-Aug-06 05:00:00.0000,  3.575358976547099E+05,  9.070295275319010E+04,  3.153920699720889E+04, -2.091423300793916E-01,  9.138187826717100E-01,  4.937464802232483E-01,
2460162.715277778, A.D. 2023-Aug-06 05:10:00.0000,  3.574099005819686E+05,  9.125111092031312E+04,  3.183540834684329E+04, -2.108477270232922E-01,  9.133746962400351E-01,  4.935911247925855E-01,
2460162.722222222, A.D. 2023-Aug-06 05:20:00.0000,  3.572828806051882E+05,  9.179900189517585E+04,  3.213151607457593E+04, -2.125520094363481E-01,  9.129281422970458E-01,  4.934344074417446E-01,
2460162.729166667, A.D. 2023-Aug-06 05:30:00.0000,  3.571548383944781E+05,  9.234662419815933E+04,  3.242752936365900E+04, -2.142551726842822E-01,  9.124791238030736E-01,  4.932763295190542E-01,
2460162.736111111, A.D. 2023-Aug-06 05:40:00.0000,  3.570257746227249E+05,  9.289397635142253E+04,  3.272344739815478E+04, -2.159572121432166E-01,  9.120276437242395E-01,  4.931168923764128E-01,
2460162.743055556, A.D. 2023-Aug-06 05:50:00.0000,  3.568956899655868E+05,  9.344105687890579E+04,  3.301926936293777E+04, -2.176581231996754E-01,  9.115737050324251E-01,  4.929560973692716E-01,
2460162.750000000, A.D. 2023-Aug-06 06:00:00.0000,  3.567645851014865E+05,  9.398786430633432E+04,  3.331499444369678E+04, -2.193579012505877E-01,  9.111173107052373E-01,  4.927939458566183E-01,
2460162.756944444, A.D. 2023-Aug-06 06:10:00.0000,  3.566324607116058E+05,  9.453439716122161E+04,  3.361062182693709E+04, -2.210565417032900E-01,  9.106584637259791E-01,  4.926304392009593E-01,
2460162.763888889, A.D. 2023-Aug-06 06:20:00.0000,  3.564993174798787E+05,  9.508065397287284E+04,  3.390615069998251E+04, -2.227540399755291E-01,  9.101971670836159E-01,  4.924655787683037E-01,
2460162.770833333, A.D. 2023-Aug-06 06:30:00.0000,  3.563651560929856E+05,  9.562663327238822E+04,  3.420158025097752E+04, -2.244503914954639E-01,  9.097334237727430E-01,  4.922993659281463E-01,
2460162.777777778, A.D. 2023-Aug-06 06:40:00.0000,  3.562299772403470E+05,  9.617233359266643E+04,  3.449690966888936E+04, -2.261455917016683E-01,  9.092672367935561E-01,  4.921318020534504E-01,
2460162.784722222, A.D. 2023-Aug-06 06:50:00.0000,  3.560937816141167E+05,  9.671775346840794E+04,  3.479213814351002E+04, -2.278396360431329E-01,  9.087986091518170E-01,  4.919628885206314E-01,
2460162.791666667, A.D. 2023-Aug-06 07:00:00.0000,  3.559565699091764E+05,  9.726289143611833E+04,  3.508726486545843E+04, -2.295325199792673E-01,  9.083275438588232E-01,  4.917926267095398E-01,
